{"type": "FeatureCollection", "features": [ {"type": "Feature", "properties": {"norad_id": 49810, "name": "GSAT0224 (GALILEO 28)", "group": "gnss", "lat": 42.118511505099086, "lon": 22.281522897550012, "alt_km": 23227.386576869285, "timestamp": "2025-12-15T07:02:37.862323+00:00", "meta": {"OBJECT_NAME": "GSAT0224 (GALILEO 28)", "OBJECT_ID": "2021-116B", "EPOCH": "2025-12-14T00:56:09.559392", "MEAN_MOTION": 1.70476108, "ECCENTRICITY": 0.00038616, "INCLINATION": 57.22, "RA_OF_ASC_NODE": 346.6758, "ARG_OF_PERICENTER": 256.6425, "MEAN_ANOMALY": 106.3645, "EPHEMERIS_TYPE": 0, "CLASSIFICATION_TYPE": "U", "NORAD_CAT_ID": 49810, "ELEMENT_SET_NO": 999, "REV_AT_EPOCH": 2505, "BSTAR": 0, "MEAN_MOTION_DOT": -8.5e-07, "MEAN_MOTION_DDOT": 0}, "tle": {"line1": "1 49810U 21116B   25348.03899953 -.00000085  00000+0  00000+0 0  9993", "line2": "2 49810  57.2200 346.6758 0003861 256.6425 106.3645  1.70476108 25058"}}, "geometry": {"type": "Point", "coordinates": [22.281522897550012, 42.118511505099086]}}, {"type": "Feature", "properties": {"norad_id": 52984, "name": "COSMOS 2557 (706K)", "group": "gnss", "lat": 61.368974995236066, "lon": 79.58090826145394, "alt_km": 19158.005194626294, "timestamp": "2025-12-15T07:02:37.862335+00:00", "meta": {"OBJECT_NAME": "COSMOS 2557 (706K)", "OBJECT_ID": "2022-075A", "EPOCH": "2025-12-07T04:21:00.419904", "MEAN_MOTION": 2.13101754, "ECCENTRICITY": 0.00137049, "INCLINATION": 64.4129, "RA_OF_ASC_NODE": 321.247, "ARG_OF_PERICENTER": 276.9, "MEAN_ANOMALY": 82.939, "EPHEMERIS_TYPE": 0, "CLASSIFICATION_TYPE": "U", "NORAD_CAT_ID": 52984, "ELEMENT_SET_NO": 999, "REV_AT_EPOCH": 2662, "BSTAR": 0, "MEAN_MOTION_DOT": -5.2e-07, "MEAN_MOTION_DDOT": 0}, "tle": {"line1": "1 52984U 22075A   25341.18125486 -.00000052  00000+0  00000+0 0  9990", "line2": "2 52984  64.4129 321.2470 0013704 276.9000  82.9390  2.13101754 26625"}}, "geometry": {"type": "Point", "coordinates": [79.58090826145394, 61.368974995236066]}}, {"type": "Feature", "properties": {"norad_id": 54031, "name": "COSMOS 2559 (707K)", "group": "gnss", "lat": -52.92951711500439, "lon": -179.53786536727233, "alt_km": 19116.59101503364, "timestamp": "2025-12-15T07:02:37.862346+00:00", "meta": {"OBJECT_NAME": "COSMOS 2559 (707K)", "OBJECT_ID": "2022-130A", "EPOCH": "2025-12-14T00:56:40.379136", "MEAN_MOTION": 2.13101379, "ECCENTRICITY": 0.00117642, "INCLINATION": 64.3815, "RA_OF_ASC_NODE": 321.0953, "ARG_OF_PERICENTER": 192.3475, "MEAN_ANOMALY": 167.6228, "EPHEMERIS_TYPE": 0, "CLASSIFICATION_TYPE": "U", "NORAD_CAT_ID": 54031, "ELEMENT_SET_NO": 999, "REV_AT_EPOCH": 2474, "BSTAR": 0, "MEAN_MOTION_DOT": -6.6e-07, "MEAN_MOTION_DDOT": 0}, "tle": {"line1": "1 54031U 22130A   25348.03935624 -.00000066  00000+0  00000+0 0  9996", "line2": "2 54031  64.3815 321.0953 0011764 192.3475 167.6228  2.13101379 24741"}}, "geometry": {"type": "Point", "coordinates": [-179.53786536727233, -52.92951711500439]}}, {"type": "Feature", "properties": {"norad_id": 54377, "name": "COSMOS 2564 (761)", "group": "gnss", "lat": 1.4888599583325504, "lon": -160.47993911102657, "alt_km": 19150.43743831421, "timestamp": "2025-12-15T07:02:37.862357+00:00", "meta": {"OBJECT_NAME": "COSMOS 2564 (761)", "OBJECT_ID": "2022-161A", "EPOCH": "2025-12-14T19:43:47.966016", "MEAN_MOTION": 2.13102112, "ECCENTRICITY": 0.00085919, "INCLINATION": 64.7383, "RA_OF_ASC_NODE": 198.8297, "ARG_OF_PERICENTER": 204.5359, "MEAN_ANOMALY": 155.5011, "EPHEMERIS_TYPE": 0, "CLASSIFICATION_TYPE": "U", "NORAD_CAT_ID": 54377, "ELEMENT_SET_NO": 999, "REV_AT_EPOCH": 2370, "BSTAR": 0, "MEAN_MOTION_DOT": 9.9e-07, "MEAN_MOTION_DDOT": 0}, "tle": {"line1": "1 54377U 22161A   25348.82208294  .00000099  00000+0  00000+0 0  9991", "line2": "2 54377  64.7383 198.8297 0008591 204.5359 155.5011  2.13102112 23707"}}, "geometry": {"type": "Point", "coordinates": [-160.47993911102657, 1.4888599583325504]}}, {"type": "Feature", "properties": {"norad_id": 55268, "name": "GPS BIII-6  (PRN 28)", "group": "gnss", "lat": -36.88907569652404, "lon": 7.338539150548337, "alt_km": 20193.77552006977, "timestamp": "2025-12-15T07:02:37.862370+00:00", "meta": {"OBJECT_NAME": "GPS BIII-6  (PRN 28)", "OBJECT_ID": "2023-009A", "EPOCH": "2025-12-13T12:37:03.021024", "MEAN_MOTION": 2.00555696, "ECCENTRICITY": 0.00037118, "INCLINATION": 55.1051, "RA_OF_ASC_NODE": 155.8142, "ARG_OF_PERICENTER": 357.4368, "MEAN_ANOMALY": 33.2544, "EPHEMERIS_TYPE": 0, "CLASSIFICATION_TYPE": "U", "NORAD_CAT_ID": 55268, "ELEMENT_SET_NO": 999, "REV_AT_EPOCH": 2152, "BSTAR": 0, "MEAN_MOTION_DOT": 1e-06, "MEAN_MOTION_DDOT": 0}, "tle": {"line1": "1 55268U 23009A   25347.52572941  .00000100  00000+0  00000+0 0  9995", "line2": "2 55268  55.1051 155.8142 0003711 357.4368  33.2544  2.00555696 21528"}}, "geometry": {"type": "Point", "coordinates": [7.338539150548337, -36.88907569652404]}}, {"type": "Feature", "properties": {"norad_id": 56564, "name": "BEIDOU-3 G4 (C62)", "group": "gnss", "lat": 0.6051474265280187, "lon": -10.093626555031554, "alt_km": 35797.87801027555, "timestamp": "2025-12-15T07:02:37.862382+00:00", "meta": {"OBJECT_NAME": "BEIDOU-3 G4 (C62)", "OBJECT_ID": "2023-066A", "EPOCH": "2025-12-14T21:01:39.976032", "MEAN_MOTION": 1.00271754, "ECCENTRICITY": 0.00028272, "INCLINATION": 0.81, "RA_OF_ASC_NODE": 302.2267, "ARG_OF_PERICENTER": 229.6359, "MEAN_ANOMALY": 27.4061, "EPHEMERIS_TYPE": 0, "CLASSIFICATION_TYPE": "U", "NORAD_CAT_ID": 56564, "ELEMENT_SET_NO": 999, "REV_AT_EPOCH": 954, "BSTAR": 0, "MEAN_MOTION_DOT": -9.1e-07, "MEAN_MOTION_DDOT": 0}, "tle": {"line1": "1 56564U 23066A   25348.87615713 -.00000091  00000+0  00000+0 0  9992", "line2": "2 56564   0.8100 302.2267 0002827 229.6359  27.4061  1.00271754  9549"}}, "geometry": {"type": "Point", "coordinates": [-10.093626555031554, 0.6051474265280187]}}, {"type": "Feature", "properties": {"norad_id": 56759, "name": "NVS-01 (IRNSS-1J)", "group": "gnss", "lat": 2.4160398616127385, "lon": -40.60973405721043, "alt_km": 35761.79971723102, "timestamp": "2025-12-15T07:02:37.862394+00:00", "meta": {"OBJECT_NAME": "NVS-01 (IRNSS-1J)", "OBJECT_ID": "2023-076A", "EPOCH": "2025-12-14T22:35:38.473728", "MEAN_MOTION": 1.00276585, "ECCENTRICITY": 0.00088784, "INCLINATION": 2.6127, "RA_OF_ASC_NODE": 251.5198, "ARG_OF_PERICENTER": 15.0239, "MEAN_ANOMALY": 285.7015, "EPHEMERIS_TYPE": 0, "CLASSIFICATION_TYPE": "U", "NORAD_CAT_ID": 56759, "ELEMENT_SET_NO": 999, "REV_AT_EPOCH": 926, "BSTAR": 0, "MEAN_MOTION_DOT": -3.13e-06, "MEAN_MOTION_DDOT": 0}, "tle": {"line1": "1 56759U 23076A   25348.94141752 -.00000313  00000+0  00000+0 0  9991", "line2": "2 56759   2.6127 251.5198 0008878  15.0239 285.7015  1.00276585  9263"}}, "geometry": {"type": "Point", "coordinates": [-40.60973405721043, 2.4160398616127385]}}, {"type": "Feature", "properties": {"norad_id": 57517, "name": "COSMOS 2569 (703K)", "group": "gnss", "lat": -7.796989863123799, "lon": 75.20746520733533, "alt_km": 19119.66858993222, "timestamp": "2025-12-15T07:02:37.862407+00:00", "meta": {"OBJECT_NAME": "COSMOS 2569 (703K)", "OBJECT_ID": "2023-114A", "EPOCH": "2025-12-13T21:31:33.711744", "MEAN_MOTION": 2.13104015, "ECCENTRICITY": 0.00105602, "INCLINATION": 65.1948, "RA_OF_ASC_NODE": 78.8743, "ARG_OF_PERICENTER": 286.9875, "MEAN_ANOMALY": 72.9108, "EPHEMERIS_TYPE": 0, "CLASSIFICATION_TYPE": "U", "NORAD_CAT_ID": 57517, "ELEMENT_SET_NO": 999, "REV_AT_EPOCH": 1831, "BSTAR": 0, "MEAN_MOTION_DOT": -5.2e-07, "MEAN_MOTION_DDOT": 0}, "tle": {"line1": "1 57517U 23114A   25347.89691796 -.00000052  00000+0  00000+0 0  9998", "line2": "2 57517  65.1948  78.8743 0010560 286.9875  72.9108  2.13104015 18311"}}, "geometry": {"type": "Point", "coordinates": [75.20746520733533, -7.796989863123799]}}, {"type": "Feature", "properties": {"norad_id": 58654, "name": "BEIDOU-3 M28 (C50)", "group": "gnss", "lat": 48.70845074912331, "lon": -162.68344249908822, "alt_km": 21528.703989495785, "timestamp": "2025-12-15T07:02:37.862424+00:00", "meta": {"OBJECT_NAME": "BEIDOU-3 M28 (C50)", "OBJECT_ID": "2023-207A", "EPOCH": "2025-12-14T14:03:38.782656", "MEAN_MOTION": 1.86229809, "ECCENTRICITY": 0.00024754, "INCLINATION": 55.5861, "RA_OF_ASC_NODE": 68.5388, "ARG_OF_PERICENTER": 270.5296, "MEAN_ANOMALY": 89.4603, "EPHEMERIS_TYPE": 0, "CLASSIFICATION_TYPE": "U", "NORAD_CAT_ID": 58654, "ELEMENT_SET_NO": 999, "REV_AT_EPOCH": 1340, "BSTAR": 0, "MEAN_MOTION_DOT": -8.4e-07, "MEAN_MOTION_DDOT": 0}, "tle": {"line1": "1 58654U 23207A   25348.58586554 -.00000084  00000+0  00000+0 0  9991", "line2": "2 58654  55.5861  68.5388 0002475 270.5296  89.4603  1.86229809 13400"}}, "geometry": {"type": "Point", "coordinates": [-162.68344249908822, 48.70845074912331]}}, {"type": "Feature", "properties": {"norad_id": 58655, "name": "BEIDOU-3 M26 (C48)", "group": "gnss", "lat": -50.88761761437832, "lon": -54.15306266537226, "alt_km": 21522.86226633519, "timestamp": "2025-12-15T07:02:37.862435+00:00", "meta": {"OBJECT_NAME": "BEIDOU-3 M26 (C48)", "OBJECT_ID": "2023-207B", "EPOCH": "2025-12-14T09:12:13.791744", "MEAN_MOTION": 1.86231292, "ECCENTRICITY": 0.00038911, "INCLINATION": 55.5879, "RA_OF_ASC_NODE": 68.532, "ARG_OF_PERICENTER": 256.6064, "MEAN_ANOMALY": 103.3685, "EPHEMERIS_TYPE": 0, "CLASSIFICATION_TYPE": "U", "NORAD_CAT_ID": 58655, "ELEMENT_SET_NO": 999, "REV_AT_EPOCH": 1338, "BSTAR": 0, "MEAN_MOTION_DOT": -8.4e-07, "MEAN_MOTION_DDOT": 0}, "tle": {"line1": "1 58655U 23207B   25348.38349296 -.00000084  00000+0  00000+0 0  9990", "line2": "2 58655  55.5879  68.5320 0003891 256.6064 103.3685  1.86231292 13389"}}, "geometry": {"type": "Point", "coordinates": [-54.15306266537226, -50.88761761437832]}}]}